start=new Date('2022-05-15T00:00:00.000Z').valueOf();
sats=[{"REV_AT_EPOCH":"8636","LAUNCH_DATE":"2020-10-24","MEAN_MOTION":"15.06395470","EPOCH":"2022-05-14T07:55:48.744192","TLE_LINE1":"1 46754U 20074R   22134.33042528 -.00000533  00000-0 -16845-4 0  9999","TIME_SYSTEM":"UTC","MEAN_ELEMENT_THEORY":"SGP4","TLE_LINE2":"2 46754  53.0551 105.6194 0001860  55.6237 304.4927 15.06395470 86368","NORAD_CAT_ID":"46754","EPHEMERIS_TYPE":"0","REF_FRAME":"TEME","INCLINATION":"53.0551","FILE":"3445495","MEAN_MOTION_DOT":"-0.00000533","OBJECT_TYPE":"PAYLOAD","PERIOD":"95.592","DECAY_DATE":null,"OBJECT_NAME":"STARLINK-1923","SEMIMAJOR_AXIS":"6925.362","ECCENTRICITY":"0.00018600","RA_OF_ASC_NODE":"105.6194","OBJECT_ID":"2020-074R","GP_ID":"203527529","MEAN_ANOMALY":"304.4927","BSTAR":"-0.00001684500000","SITE":"AFETR","CLASSIFICATION_TYPE":"U","MEAN_MOTION_DDOT":"0.0000000000000","COUNTRY_CODE":"US","ELEMENT_SET_NO":"999","APOAPSIS":"548.516","CENTER_NAME":"EARTH","RCS_SIZE":"LARGE","PERIAPSIS":"545.939","ARG_OF_PERICENTER":"55.6237"},{"INCLINATION":"53.0545","FILE":"3445938","DECAY_DATE":null,"OBJECT_TYPE":"PAYLOAD","MEAN_MOTION_DOT":"-0.00000589","PERIOD":"95.592","EPHEMERIS_TYPE":"0","NORAD_CAT_ID":"46755","REF_FRAME":"TEME","TLE_LINE1":"1 46755U 20074S   22134.66721874 -.00000589  00000-0 -20613-4 0  9993","TLE_LINE2":"2 46755  53.0545 109.1099 0002521  48.1503 311.9700 15.06406153 86344","MEAN_ELEMENT_THEORY":"SGP4","TIME_SYSTEM":"UTC","REV_AT_EPOCH":"8634","LAUNCH_DATE":"2020-10-24","EPOCH":"2022-05-14T16:00:47.699136","MEAN_MOTION":"15.06406153","RCS_SIZE":"LARGE","PERIAPSIS":"545.449","ARG_OF_PERICENTER":"48.1503","SITE":"AFETR","CLASSIFICATION_TYPE":"U","BSTAR":"-0.00002061300000","APOAPSIS":"548.941","CENTER_NAME":"EARTH","MEAN_MOTION_DDOT":"0.0000000000000","COUNTRY_CODE":"US","ELEMENT_SET_NO":"999","OBJECT_ID":"2020-074S","MEAN_ANOMALY":"311.9700","GP_ID":"203562793","SEMIMAJOR_AXIS":"6925.330","ECCENTRICITY":"0.00025210","OBJECT_NAME":"STARLINK-1924","RA_OF_ASC_NODE":"109.1099"},{"RCS_SIZE":"LARGE","PERIAPSIS":"545.448","ARG_OF_PERICENTER":"49.4441","BSTAR":"-0.00000551980000","SITE":"AFETR","CLASSIFICATION_TYPE":"U","MEAN_MOTION_DDOT":"0.0000000000000","COUNTRY_CODE":"US","ELEMENT_SET_NO":"999","APOAPSIS":"548.989","CENTER_NAME":"EARTH","OBJECT_ID":"2020-074T","GP_ID":"203563550","MEAN_ANOMALY":"310.6770","OBJECT_NAME":"STARLINK-1925","SEMIMAJOR_AXIS":"6925.353","ECCENTRICITY":"0.00025570","RA_OF_ASC_NODE":"109.1596","INCLINATION":"53.0535","FILE":"3445938","OBJECT_TYPE":"PAYLOAD","MEAN_MOTION_DOT":"-0.00000364","PERIOD":"95.592","DECAY_DATE":null,"NORAD_CAT_ID":"46756","EPHEMERIS_TYPE":"0","REF_FRAME":"TEME","TLE_LINE1":"1 46756U 20074T   22134.65891339 -.00000364  00000-0 -55198-5 0  9995","TIME_SYSTEM":"UTC","TLE_LINE2":"2 46756  53.0535 109.1596 0002557  49.4441 310.6770 15.06398402 86340","MEAN_ELEMENT_THEORY":"SGP4","REV_AT_EPOCH":"8634","LAUNCH_DATE":"2020-10-24","MEAN_MOTION":"15.06398402","EPOCH":"2022-05-14T15:48:50.116896"},{"OBJECT_TYPE":"PAYLOAD","PERIOD":"95.592","MEAN_MOTION_DOT":"-0.00000888","DECAY_DATE":null,"FILE":"3445938","INCLINATION":"53.0542","REF_FRAME":"TEME","EPHEMERIS_TYPE":"0","NORAD_CAT_ID":"46757","TIME_SYSTEM":"UTC","TLE_LINE2":"2 46757  53.0542 109.3271 0002395  45.8199 314.2987 15.06400249 86333","MEAN_ELEMENT_THEORY":"SGP4","TLE_LINE1":"1 46757U 20074U   22134.62204890 -.00000888  00000-0 -40722-4 0  9990","MEAN_MOTION":"15.06400249","EPOCH":"2022-05-14T14:55:45.024960","REV_AT_EPOCH":"8633","LAUNCH_DATE":"2020-10-24","ARG_OF_PERICENTER":"45.8199","RCS_SIZE":"LARGE","PERIAPSIS":"545.554","COUNTRY_CODE":"US","MEAN_MOTION_DDOT":"0.0000000000000","ELEMENT_SET_NO":"999","APOAPSIS":"548.871","CENTER_NAME":"EARTH","BSTAR":"-0.00004072200000","SITE":"AFETR","CLASSIFICATION_TYPE":"U","GP_ID":"203562518","MEAN_ANOMALY":"314.2987","OBJECT_ID":"2020-074U","RA_OF_ASC_NODE":"109.3271","OBJECT_NAME":"STARLINK-1926","SEMIMAJOR_AXIS":"6925.348","ECCENTRICITY":"0.00023950"},{"REV_AT_EPOCH":"8638","LAUNCH_DATE":"2020-10-24","MEAN_MOTION":"15.06398759","EPOCH":"2022-05-14T21:56:25.720512","TLE_LINE1":"1 46758U 20074V   22134.91418658  .00001208  00000-0  10003-3 0  9995","TIME_SYSTEM":"UTC","MEAN_ELEMENT_THEORY":"SGP4","TLE_LINE2":"2 46758  53.0538 108.0030 0002794  43.9244 316.1967 15.06398759 86387","EPHEMERIS_TYPE":"0","NORAD_CAT_ID":"46758","REF_FRAME":"TEME","FILE":"3445938","INCLINATION":"53.0538","OBJECT_TYPE":"PAYLOAD","PERIOD":"95.592","MEAN_MOTION_DOT":"0.00001208","DECAY_DATE":null,"OBJECT_NAME":"STARLINK-1928","SEMIMAJOR_AXIS":"6925.352","ECCENTRICITY":"0.00027940","RA_OF_ASC_NODE":"108.0030","OBJECT_ID":"2020-074V","GP_ID":"203562049","MEAN_ANOMALY":"316.1967","BSTAR":"0.00010003000000","SITE":"AFETR","CLASSIFICATION_TYPE":"U","COUNTRY_CODE":"US","MEAN_MOTION_DDOT":"0.0000000000000","ELEMENT_SET_NO":"999","APOAPSIS":"549.152","CENTER_NAME":"EARTH","RCS_SIZE":"LARGE","PERIAPSIS":"545.282","ARG_OF_PERICENTER":"43.9244"},{"EPHEMERIS_TYPE":"0","NORAD_CAT_ID":"46759","REF_FRAME":"TEME","FILE":"3445938","INCLINATION":"53.0553","MEAN_MOTION_DOT":"0.00000445","OBJECT_TYPE":"PAYLOAD","PERIOD":"95.592","DECAY_DATE":null,"REV_AT_EPOCH":"8619","LAUNCH_DATE":"2020-10-24","MEAN_MOTION":"15.06395182","EPOCH":"2022-05-14T15:27:37.971936","TLE_LINE1":"1 46759U 20074W   22134.64418949  .00000445  00000-0  48776-4 0  9990","TIME_SYSTEM":"UTC","TLE_LINE2":"2 46759  53.0553 119.2218 0001901  49.0380 311.0774 15.06395182 86190","MEAN_ELEMENT_THEORY":"SGP4","BSTAR":"0.00004877600000","SITE":"AFETR","CLASSIFICATION_TYPE":"U","COUNTRY_CODE":"US","MEAN_MOTION_DDOT":"0.0000000000000","ELEMENT_SET_NO":"999","APOAPSIS":"548.545","CENTER_NAME":"EARTH","RCS_SIZE":"LARGE","PERIAPSIS":"545.912","ARG_OF_PERICENTER":"49.0380","OBJECT_NAME":"STARLINK-1833","SEMIMAJOR_AXIS":"6925.363","ECCENTRICITY":"0.00019010","RA_OF_ASC_NODE":"119.2218","OBJECT_ID":"2020-074W","GP_ID":"203562295","MEAN_ANOMALY":"311.0774"},{"TLE_LINE1":"1 46760U 20074X   22134.65524946 -.00001333  00000-0 -70580-4 0  9995","MEAN_ELEMENT_THEORY":"SGP4","TLE_LINE2":"2 46760  53.0557 119.1712 0002122  46.0675 314.0489 15.06397876 86204","TIME_SYSTEM":"UTC","LAUNCH_DATE":"2020-10-24","REV_AT_EPOCH":"8620","EPOCH":"2022-05-14T15:43:33.553344","MEAN_MOTION":"15.06397876","INCLINATION":"53.0557","FILE":"3445938","DECAY_DATE":null,"OBJECT_TYPE":"PAYLOAD","PERIOD":"95.592","MEAN_MOTION_DOT":"-0.00001333","EPHEMERIS_TYPE":"0","NORAD_CAT_ID":"46760","REF_FRAME":"TEME","OBJECT_ID":"2020-074X","MEAN_ANOMALY":"314.0489","GP_ID":"203563051","ECCENTRICITY":"0.00021220","SEMIMAJOR_AXIS":"6925.355","OBJECT_NAME":"STARLINK-1896","RA_OF_ASC_NODE":"119.1712","PERIAPSIS":"545.751","RCS_SIZE":"LARGE","ARG_OF_PERICENTER":"46.0675","CLASSIFICATION_TYPE":"U","SITE":"AFETR","BSTAR":"-0.00007058000000","CENTER_NAME":"EARTH","APOAPSIS":"548.690","ELEMENT_SET_NO":"999","MEAN_MOTION_DDOT":"0.0000000000000","COUNTRY_CODE":"US"},{"PERIAPSIS":"436.839","RCS_SIZE":"LARGE","ARG_OF_PERICENTER":"19.1721","BSTAR":"-0.00009289800000","CLASSIFICATION_TYPE":"U","SITE":"AFETR","ELEMENT_SET_NO":"999","COUNTRY_CODE":"US","MEAN_MOTION_DDOT":"0.0000000000000","CENTER_NAME":"EARTH","APOAPSIS":"442.686","OBJECT_ID":"2020-074AA","GP_ID":"203562019","MEAN_ANOMALY":"340.9445","OBJECT_NAME":"STARLINK-1902","ECCENTRICITY":"0.00042880","SEMIMAJOR_AXIS":"6817.897","RA_OF_ASC_NODE":"89.7875","FILE":"3445938","INCLINATION":"53.0559","MEAN_MOTION_DOT":"-0.00004455","OBJECT_TYPE":"PAYLOAD","PERIOD":"93.376","DECAY_DATE":null,"EPHEMERIS_TYPE":"0","NORAD_CAT_ID":"46763","REF_FRAME":"TEME","TLE_LINE1":"1 46763U 20074AA  22134.59679074 -.00004455  00000-0 -92898-4 0  9998","TIME_SYSTEM":"UTC","TLE_LINE2":"2 46763  53.0559  89.7875 0004288  19.1721 340.9445 15.42151664 86617","MEAN_ELEMENT_THEORY":"SGP4","LAUNCH_DATE":"2020-10-24","REV_AT_EPOCH":"8661","MEAN_MOTION":"15.42151664","EPOCH":"2022-05-14T14:19:22.719936"},{"MEAN_ELEMENT_THEORY":"SGP4","TLE_LINE2":"2 46764  53.0561 119.2061 0002386  41.7138 318.4032 15.06392241 86202","TIME_SYSTEM":"UTC","TLE_LINE1":"1 46764U 20074AB  22134.64788368 -.00001573  00000-0 -86714-4 0  9990","EPOCH":"2022-05-14T15:32:57.149952","MEAN_MOTION":"15.06392241","LAUNCH_DATE":"2020-10-24","REV_AT_EPOCH":"8620","DECAY_DATE":null,"OBJECT_TYPE":"PAYLOAD","PERIOD":"95.593","MEAN_MOTION_DOT":"-0.00001573","INCLINATION":"53.0561","FILE":"3445938","REF_FRAME":"TEME","NORAD_CAT_ID":"46764","EPHEMERIS_TYPE":"0","MEAN_ANOMALY":"318.4032","GP_ID":"203562549","OBJECT_ID":"2020-074AB","RA_OF_ASC_NODE":"119.2061","ECCENTRICITY":"0.00023860","SEMIMAJOR_AXIS":"6925.372","OBJECT_NAME":"STARLINK-1903","ARG_OF_PERICENTER":"41.7138","PERIAPSIS":"545.585","RCS_SIZE":"LARGE","CENTER_NAME":"EARTH","APOAPSIS":"548.890","ELEMENT_SET_NO":"999","COUNTRY_CODE":"US","MEAN_MOTION_DDOT":"0.0000000000000","CLASSIFICATION_TYPE":"U","SITE":"AFETR","BSTAR":"-0.00008671400000"},{"MEAN_MOTION":"15.06403039","EPOCH":"2022-05-14T08:54:51.228864","LAUNCH_DATE":"2020-10-24","REV_AT_EPOCH":"8615","TIME_SYSTEM":"UTC","TLE_LINE2":"2 46765  53.0531 120.4504 0002183  41.6187 318.4968 15.06403039 86154","MEAN_ELEMENT_THEORY":"SGP4","TLE_LINE1":"1 46765U 20074AC  22134.37142626 -.00000069  00000-0  14298-4 0  9998","REF_FRAME":"TEME","NORAD_CAT_ID":"46765","EPHEMERIS_TYPE":"0","PERIOD":"95.592","OBJECT_TYPE":"PAYLOAD","MEAN_MOTION_DOT":"-0.00000069","DECAY_DATE":null,"FILE":"3445495","INCLINATION":"53.0531","RA_OF_ASC_NODE":"120.4504","OBJECT_NAME":"STARLINK-1906","ECCENTRICITY":"0.00021830","SEMIMAJOR_AXIS":"6925.339","GP_ID":"203528279","MEAN_ANOMALY":"318.4968","OBJECT_ID":"2020-074AC","ELEMENT_SET_NO":"999","MEAN_MOTION_DDOT":"0.0000000000000","COUNTRY_CODE":"US","CENTER_NAME":"EARTH","APOAPSIS":"548.716","BSTAR":"0.00001429800000","CLASSIFICATION_TYPE":"U","SITE":"AFETR","ARG_OF_PERICENTER":"41.6187","PERIAPSIS":"545.692","RCS_SIZE":"LARGE"}];
